GLOBALSTAR M063         
1 26081U 00008A   25288.90142236 -.00000046  00000+0  53629-3 0  9995
2 26081  51.9926 153.6528 0004326 173.8313 198.8920 11.86176326171908
GLOBALSTAR M062         
1 26082U 00008B   25288.95884344 -.00000044  00000+0  38938-3 0  9998
2 26082  51.9828 100.6248 0007277  17.8121 145.0608 12.43474695511643
GLOBALSTAR M060         
1 26083U 00008C   25288.71933322  .00000015  00000+0  10572-2 0  9994
2 26083  52.0013  78.3880 0003387  27.0001 346.5489 12.17668102167059
GLOBALSTAR M064         
1 26084U 00008D   25288.91026667 -.00000065  00000+0  25770-3 0  9995
2 26084  52.0021 251.0343 0001380 309.6885  50.3826 11.88537536181451
GLOBALSTAR M065         
1 31571U 07020A   25288.84165289 -.00000091  00000+0  73325-4 0  9998
2 31571  51.9885 219.0305 0009414 213.7572 180.9531 12.62009879848641
GLOBALSTAR M069         
1 31573U 07020C   25288.82586287 -.00000105  00000+0 -11244-3 0  9991
2 31573  52.0022 223.7601 0002292  17.9176 358.8797 12.23462366848898
GLOBALSTAR M072         
1 31574U 07020D   25288.73635693 -.00000072  00000+0  16509-3 0  9999
2 31574  51.9963  31.0363 0001363 171.5060 356.0823 11.91652218845835
GLOBALSTAR M071         
1 31576U 07020F   25288.67988684 -.00000057  00000+0  33530-3 0  9991
2 31576  52.0052 253.1893 0001171   9.4360 162.1486 12.18259530509627
